NORAD_CAT_ID,OBJECT_NAME,OBJECT_TYPE,EPOCH,MEAN_MOTION,ECCENTRICITY,INCLINATION,RA_OF_ASC_NODE,ARG_OF_PERICENTER,MEAN_ANOMALY,BSTAR,MEAN_MOTION_DOT,MEAN_MOTION_DDOT,TLE_LINE0,TLE_LINE1,TLE_LINE2,SEMIMAJOR_AXIS,PERIOD,APOGEE,PERIGEE,DECAYED
53247.0,STARLINK-4061,PAYLOAD,2024-03-28 04:01:16,15.08865829,0.0002292,53.2134,153.4494,87.5107,272.6148,0.0013015,0.00020501,0.0,0 STARLINK-4061,1 53247U 22086F   24088.16754923  .00020501  00000-0  13015-2 0  9998,2 53247  53.2134 153.4494 0002292  87.5107 272.6148 15.08865829 93390,6917.801,95.436,541.252,538.081,0.0
53247.0,STARLINK-4061,PAYLOAD,2024-03-28 11:58:11,15.08859337,0.0001412,53.2143,151.9631,87.9853,272.1301,0.0022057,0.00035009,0.0,0 STARLINK-4061,1 53247U 22086F   24088.49874630  .00035009  00000-0  22057-2 0  9997,2 53247  53.2143 151.9631 0001412  87.9853 272.1301 15.08859337 93440,6917.821,95.436,540.663,538.709,0.0
53247.0,STARLINK-4061,PAYLOAD,2024-03-28 21:30:30,15.0886046,0.0001617,53.2155,150.1783,89.246,270.8718,0.0015327,0.00024203,0.0,0 STARLINK-4061,1 53247U 22086F   24088.89618567  .00024203  00000-0  15327-2 0  9992,2 53247  53.2155 150.1783 0001617  89.2460 270.8718 15.08860460 94007,6917.818,95.436,540.801,538.564,0.0
53247.0,STARLINK-4061,PAYLOAD,2024-03-29 03:52:02,15.08855024,0.0001685,53.215,148.9877,102.6746,257.4435,0.0010633,0.00016682,0.0,0 STARLINK-4061,1 53247U 22086F   24089.16114424  .00016682  00000-0  10633-2 0  9993,2 53247  53.2150 148.9877 0001685 102.6746 257.4435 15.08855024 93548,6917.834,95.437,540.865,538.534,0.0
53247.0,STARLINK-4061,PAYLOAD,2024-03-29 13:24:21,15.08863627,0.0001784,53.2155,147.2038,100.7423,259.377,0.00088148,0.00013778,0.0,0 STARLINK-4061,1 53247U 22086F   24089.55858048  .00013778  00000-0  88148-3 0  9993,2 53247  53.2155 147.2038 0001784 100.7423 259.3770 15.08863627 94109,6917.808,95.436,540.907,538.439,0.0
53247.0,STARLINK-4061,PAYLOAD,2024-03-29 21:21:17,15.08847657,0.0001719,53.2159,145.7166,88.9181,271.2008,0.00027178,4.041e-05,0.0,0 STARLINK-4061,1 53247U 22086F   24089.88978222  .00004041  00000-0  27178-3 0  9995,2 53247  53.2159 145.7166 0001719  88.9181 271.2008 15.08847657 94151,6917.857,95.437,540.911,538.533,0.0
53247.0,STARLINK-4061,PAYLOAD,2024-03-30 03:42:49,15.0885143,0.0002056,53.2144,144.5289,82.4201,277.7025,0.00051459,7.914e-05,0.0,0 STARLINK-4061,1 53247U 22086F   24090.15474269  .00007914  00000-0  51459-3 0  9990,2 53247  53.2144 144.5289 0002056  82.4201 277.7025 15.08851430 93697,6917.845,95.437,541.133,538.288,0.0
53247.0,STARLINK-4061,PAYLOAD,2024-03-30 10:04:22,15.08847473,0.0001769,53.2145,143.3393,85.2181,274.9013,0.000351,5.304e-05,0.0,0 STARLINK-4061,1 53247U 22086F   24090.41970196  .00005304  00000-0  35100-3 0  9995,2 53247  53.2145 143.3393 0001769  85.2181 274.9013 15.08847473 94238,6917.858,95.437,540.946,538.499,0.0
53247.0,STARLINK-4061,PAYLOAD,2024-03-31 03:33:36,15.08845222,0.0001787,53.2153,140.0681,84.4152,275.7044,0.00049033,7.525e-05,0.0,0 STARLINK-4061,1 53247U 22086F   24091.14834372  .00007525  00000-0  49033-3 0  9998,2 53247  53.2153 140.0681 0001787  84.4152 275.7044 15.08845222 93849,6917.864,95.437,540.966,538.493,0.0
53247.0,STARLINK-4061,PAYLOAD,2024-03-31 09:55:09,15.08852981,0.0001746,53.2152,138.8781,89.0069,271.1123,0.00031844,4.785e-05,0.0,0 STARLINK-4061,1 53247U 22086F   24091.41330011  .00004785  00000-0  31844-3 0  9995,2 53247  53.2152 138.8781 0001746  89.0069 271.1123 15.08852981 94385,6917.841,95.437,540.914,538.498,0.0
53247.0,STARLINK-4061,PAYLOAD,2024-04-01 09:45:57,15.08833521,0.0001653,53.2155,134.4169,84.7376,275.3805,3.0955e-05,2.05e-06,0.0,0 STARLINK-4061,1 53247U 22086F   24092.40691006  .00000205  00000-0  30955-4 0  9995,2 53247  53.2155 134.4169 0001653  84.7376 275.3805 15.08833521 94034,6917.9,95.438,540.909,538.622,0.0
53247.0,STARLINK-4061,PAYLOAD,2024-04-02 09:36:43,15.08849055,0.0001625,53.2161,129.9562,87.1729,272.9449,0.00022467,3.29e-05,0.0,0 STARLINK-4061,1 53247U 22086F   24093.40050356  .00003290  00000-0  22467-3 0  9998,2 53247  53.2161 129.9562 0001625  87.1729 272.9449 15.08849055 94187,6917.853,95.437,540.842,538.594,0.0
53247.0,STARLINK-4061,PAYLOAD,2024-04-02 19:09:02,15.08843587,0.0001506,53.2148,128.1742,97.0134,263.103,0.00013848,1.917e-05,0.0,0 STARLINK-4061,1 53247U 22086F   24093.79794552  .00001917  00000-0  13848-3 0  9990,2 53247  53.2148 128.1742 0001506  97.0134 263.1030 15.08843587 94745,6917.869,95.437,540.776,538.693,0.0
53247.0,STARLINK-4061,PAYLOAD,2024-04-03 11:02:54,15.08840146,0.0001572,53.2155,125.2007,98.5265,261.5905,9.7874e-05,1.27e-05,0.0,0 STARLINK-4061,1 53247U 22086F   24094.46034807  .00001270  00000-0  97874-4 0  9999,2 53247  53.2155 125.2007 0001572  98.5265 261.5905 15.08840146 94841,6917.88,95.438,540.832,538.657,0.0
53247.0,STARLINK-4061,PAYLOAD,2024-04-03 18:59:49,15.08839711,0.000159,53.2157,123.7138,92.98,267.1374,5.5889e-05,6.02e-06,0.0,0 STARLINK-4061,1 53247U 22086F   24094.79154859  .00000602  00000-0  55889-4 0  9993,2 53247  53.2157 123.7138 0001590  92.9800 267.1374 15.08839711 94392,6917.881,95.438,540.846,538.646,0.0
53247.0,STARLINK-4061,PAYLOAD,2024-04-04 09:18:18,15.08837192,0.0001565,53.2164,121.0369,91.2914,268.8257,-1.4963e-05,-5.26e-06,0.0,0 STARLINK-4061,1 53247U 22086F   24095.38771530 -.00000526  00000-0 -14963-4 0  9995,2 53247  53.2164 121.0369 0001565  91.2914 268.8257 15.08837192 94486,6917.889,95.438,540.837,538.671,0.0
53247.0,STARLINK-4061,PAYLOAD,2024-04-04 18:50:37,15.08843891,0.0001682,53.2174,119.2513,90.155,269.9634,-4.8291e-05,-1.057e-05,0.0,0 STARLINK-4061,1 53247U 22086F   24095.78515162 -.00001057  00000-0 -48291-4 0  9997,2 53247  53.2174 119.2513 0001682  90.1550 269.9634 15.08843891 95048,6917.868,95.437,540.897,538.57,0.0
53247.0,STARLINK-4061,PAYLOAD,2024-04-05 10:44:28,15.08843511,0.0001585,53.2168,116.2777,88.639,271.4783,9.8897e-05,1.286e-05,0.0,0 STARLINK-4061,1 53247U 22086F   24096.44754884  .00001286  00000-0  98897-4 0  9996,2 53247  53.2168 116.2777 0001585  88.6390 271.4783 15.08843511 94643,6917.87,95.437,540.831,538.638,0.0
53247.0,STARLINK-4061,PAYLOAD,2024-04-05 18:41:19,15.08901129,0.0001546,53.2172,114.7906,88.0885,272.0284,0.00055854,8.627e-05,0.0,0 STARLINK-4061,1 53247U 22086F   24096.77869224  .00008627  00000-0  55854-3 0  9998,2 53247  53.2172 114.7906 0001546  88.0885 272.0284 15.08901129 94693,6917.694,95.434,540.628,538.489,0.0
53247.0,STARLINK-4061,PAYLOAD,2024-04-06 01:02:54,15.08858839,0.0002074,53.2164,113.6008,93.406,266.717,0.00024997,3.694e-05,0.0,0 STARLINK-4061,1 53247U 22086F   24097.04368413  .00003694  00000-0  24997-3 0  9996,2 53247  53.2164 113.6008 0002074  93.4060 266.7170 15.08858839 94735,6917.823,95.436,541.123,538.253,0.0
53247.0,STARLINK-4061,PAYLOAD,2024-04-06 07:24:29,15.08829342,0.000155,53.2163,112.4115,91.8264,268.2906,-4.4804e-06,-3.59e-06,0.0,0 STARLINK-4061,1 53247U 22086F   24097.30867002 -.00000359  00000-0 -44804-5 0  9991,2 53247  53.2163 112.4115 0001550  91.8264 268.2906 15.08829342 94771,6917.913,95.438,540.85,538.706,0.0
53247.0,STARLINK-4061,PAYLOAD,2024-04-06 18:32:11,15.08829621,0.0001466,53.2164,110.331,87.1443,272.9717,-4.1232e-05,-9.44e-06,0.0,0 STARLINK-4061,1 53247U 22086F   24097.77235273 -.00000944  00000-0 -41232-4 0  9992,2 53247  53.2164 110.3310 0001466  87.1443 272.9717 15.08829621 95345,6917.912,95.438,540.791,538.763,0.0
53247.0,STARLINK-4061,PAYLOAD,2024-04-07 10:26:03,15.08828042,0.0001631,53.2165,107.3561,93.2592,266.8587,-0.00011145,-2.061e-05,0.0,0 STARLINK-4061,1 53247U 22086F   24098.43475861 -.00002061  00000-0 -11145-3 0  9996,2 53247  53.2165 107.3561 0001631  93.2592 266.8587 15.08828042 94945,6917.917,95.438,540.91,538.654,0.0
53247.0,STARLINK-4061,PAYLOAD,2024-04-08 03:55:20,15.08709587,0.0001298,53.2169,104.0854,141.3273,218.7813,0.001759,0.00027717,0.0,0 STARLINK-4061,1 53247U 22086F   24099.16343093  .00027717  00000-0  17590-2 0  9990,2 53247  53.2169 104.0854 0001298 141.3273 218.7813 15.08709587 95051,6918.279,95.446,541.042,539.246,0.0
53247.0,STARLINK-4061,PAYLOAD,2024-04-08 11:52:12,15.08828012,0.0001666,53.2164,102.5998,90.7936,269.3247,0.00017435,2.487e-05,0.0,0 STARLINK-4061,1 53247U 22086F   24099.49459364  .00002487  00000-0  17435-3 0  9991,2 53247  53.2164 102.5998 0001666  90.7936 269.3247 15.08828012 95104,6917.917,95.438,540.935,538.63,0.0
53247.0,STARLINK-4061,PAYLOAD,2024-04-09 00:35:17,15.08835526,0.0001664,53.2166,100.2196,88.8301,271.2882,0.00028223,4.206e-05,0.0,0 STARLINK-4061,1 53247U 22086F   24100.02451205  .00004206  00000-0  28223-3 0  9997,2 53247  53.2166 100.2196 0001664  88.8301 271.2882 15.08835526 95681,6917.894,95.438,540.91,538.608,0.0
53247.0,STARLINK-4061,PAYLOAD,2024-04-09 06:56:50,15.08845983,0.000169,53.2154,99.0302,88.5822,271.5364,0.000427,6.515e-05,0.0,0 STARLINK-4061,1 53247U 22086F   24100.28947415  .00006515  00000-0  42700-3 0  9999,2 53247  53.2154  99.0302 0001690  88.5822 271.5364 15.08845983 95222,6917.862,95.437,540.896,538.558,0.0
53247.0,STARLINK-4061,PAYLOAD,2024-04-09 16:29:09,15.08844437,0.0001651,53.2149,97.246,87.9629,272.1552,0.00028183,4.201e-05,0.0,0 STARLINK-4061,1 53247U 22086F   24100.68691472  .00004201  00000-0  28183-3 0  9991,2 53247  53.2149  97.2460 0001651  87.9629 272.1552 15.08844437 95786,6917.867,95.437,540.874,538.59,0.0
53247.0,STARLINK-4061,PAYLOAD,2024-04-10 05:12:14,15.08841398,0.0001675,53.2152,94.867,88.8065,271.3119,6.6963e-05,7.78e-06,0.0,0 STARLINK-4061,1 53247U 22086F   24101.21683483  .00000778  00000-0  66963-4 0  9998,2 53247  53.2152  94.8670 0001675  88.8065 271.3119 15.08841398 95363,6917.876,95.437,540.9,538.582,0.0
53247.0,STARLINK-4061,PAYLOAD,2024-04-10 08:23:00,15.08843183,0.0001686,53.2154,94.2723,88.9054,271.2132,7.6486e-05,9.3e-06,0.0,0 STARLINK-4061,1 53247U 22086F   24101.34931338  .00000930  00000-0  76486-4 0  9998,2 53247  53.2154  94.2723 0001686  88.9054 271.2132 15.08843183 95884,6917.871,95.437,540.902,538.569,0.0
